[{"OBJECT_NAME":"ONEWEB-0609","OBJECT_ID":"2023-043AA","EPOCH":"2026-03-09T14:59:35.401920","MEAN_MOTION":13.15547705,"ECCENTRICITY":0.0001696,"INCLINATION":87.8934,"RA_OF_ASC_NODE":279.0965,"ARG_OF_PERICENTER":90.0975,"MEAN_ANOMALY":270.035,"EPHEMERIS_TYPE":0,"CLASSIFICATION_TYPE":"U","NORAD_CAT_ID":56070,"ELEMENT_SET_NO":999,"REV_AT_EPOCH":14334,"BSTAR":-4.0627e-5,"MEAN_MOTION_DOT":-2.0e-8,"MEAN_MOTION_DDOT":0},{"OBJECT_NAME":"NOVA 3","OBJECT_ID":"1984-110A","EPOCH":"2026-03-09T22:56:57.313824","MEAN_MOTION":13.23056942,"ECCENTRICITY":0.00334622,"INCLINATION":90.1127,"RA_OF_ASC_NODE":81.5188,"ARG_OF_PERICENTER":89.1357,"MEAN_ANOMALY":332.5718,"EPHEMERIS_TYPE":0,"CLASSIFICATION_TYPE":"U","NORAD_CAT_ID":15362,"ELEMENT_SET_NO":999,"REV_AT_EPOCH":99852,"BSTAR":0.00012783435,"MEAN_MOTION_DOT":6.3e-7,"MEAN_MOTION_DDOT":0}]
